[{"OBJECT_NAME":"HIBARI","OBJECT_ID":"2021-102F","EPOCH":"2026-03-09T16:55:51.090816","MEAN_MOTION":15.29554512,"ECCENTRICITY":0.00120742,"INCLINATION":97.3381,"RA_OF_ASC_NODE":115.826,"ARG_OF_PERICENTER":186.5211,"MEAN_ANOMALY":173.5875,"EPHEMERIS_TYPE":0,"CLASSIFICATION_TYPE":"U","NORAD_CAT_ID":49400,"ELEMENT_SET_NO":999,"REV_AT_EPOCH":23897,"BSTAR":0.00042758039,"MEAN_MOTION_DOT":0.00012206,"MEAN_MOTION_DDOT":0},{"OBJECT_NAME":"STARLINK-35107","OBJECT_ID":"2025-195G","EPOCH":"2026-03-09T17:20:09.242016","MEAN_MOTION":15.30212768,"ECCENTRICITY":8.924e-5,"INCLINATION":53.1598,"RA_OF_ASC_NODE":257.68,"ARG_OF_PERICENTER":152.0857,"MEAN_ANOMALY":208.0192,"EPHEMERIS_TYPE":0,"CLASSIFICATION_TYPE":"U","NORAD_CAT_ID":65464,"ELEMENT_SET_NO":999,"REV_AT_EPOCH":3000,"BSTAR":0.0011506121,"MEAN_MOTION_DOT":0.00033888,"MEAN_MOTION_DDOT":0}]
